OBJECT_NAME,OBJECT_ID,EPOCH,MEAN_MOTION,ECCENTRICITY,INCLINATION,RA_OF_ASC_NODE,ARG_OF_PERICENTER,MEAN_ANOMALY,EPHEMERIS_TYPE,CLASSIFICATION_TYPE,NORAD_CAT_ID,ELEMENT_SET_NO,REV_AT_EPOCH,BSTAR,MEAN_MOTION_DOT,MEAN_MOTION_DDOT
STARLINK-36960,2026-053U,2026-06-04T05:28:33.013632,15.33446324,.00015785,97.2855,30.5833,102.0991,258.0429,0,U,68225,999,1346,.61932859E-3,.19973E-3,0
STARLINK-37038,2026-053V,2026-06-04T05:20:42.916416,15.33451257,.00012427,97.2850,30.5919,112.1371,248.0004,0,U,68226,999,1346,.64530577E-3,.20819E-3,0
STARLINK-37083,2026-053W,2026-06-04T05:24:38.148192,15.33451878,.00014437,97.2855,30.5870,90.0706,270.0702,0,U,68227,999,1345,.77962819E-3,.25184E-3,0
STARLINK-37050,2026-053X,2026-06-04T05:16:48.145152,15.33450341,.00011759,97.2852,30.5954,75.0312,285.1060,0,U,68228,999,1346,.62339342E-3,.20107E-3,0
STARLINK-37081,2026-053Y,2026-06-04T18:55:57.186048,15.49197396,.0001869,97.2836,33.9437,103.4340,256.7120,0,U,68229,999,1375,.11086E-2,.60687E-3,0
STARLINK-37100,2026-053Z,2026-06-04T14:36:41.643648,15.33451769,.0002801,97.2837,30.9869,110.7400,249.4143,0,U,68230,999,1354,.67282887E-3,.21715E-3,0
STARLINK-37104,2026-053AA,2026-06-04T05:08:58.412544,15.33451189,.00014057,97.2849,30.6022,88.9720,271.1683,0,U,68231,999,1348,.77036282E-3,.24882E-3,0
STARLINK-37027,2026-054A,2026-06-05T04:00:03.000096,15.34321832,.0001381,53.1591,243.4696,92.8006,271.8591,0,U,68232,999,594,.21543E-2,.72937E-3,0
STARLINK-37132,2026-054B,2026-06-04T13:50:49.528032,15.49393119,.00005131,53.1579,247.6780,37.4278,322.6767,0,U,68233,999,1237,.16437267E-2,.9233E-3,0
STARLINK-37101,2026-054C,2026-06-05T00:00:02.000160,15.49273350,.0001174,53.1581,248.3974,81.3517,191.3094,0,U,68234,999,593,.5269E-3,.28927E-3,0
STARLINK-36963,2026-054D,2026-06-05T00:00:02.000160,15.34395622,.0001266,53.1574,244.5985,99.8748,249.0647,0,U,68235,999,591,.4159E-3,.13699E-3,0
STARLINK-37127,2026-054E,2026-06-05T04:00:03.000096,15.49241259,.0001459,53.1587,247.3525,85.2372,161.3036,0,U,68236,999,589,.1836E-2,.102771E-2,0
STARLINK-37095,2026-054F,2026-06-03T12:02:35.138112,15.34366646,.0001242,53.1577,251.5779,72.0524,288.0614,0,U,68237,999,1222,.84775E-3,.28344E-3,0
STARLINK-37097,2026-054G,2026-06-03T20:40:35.247648,15.35405043,.00022739,53.1611,249.5538,42.7167,317.4013,0,U,68238,999,1228,.83190207E-3,.28754E-3,0
STARLINK-37096,2026-054H,2026-06-04T10:52:24.247488,15.35414141,.00018253,53.1596,246.8495,60.3470,299.7715,0,U,68239,999,1237,.71513081E-3,.24657E-3,0
STARLINK-37092,2026-054J,2026-06-05T04:00:03.000096,15.49241242,.000146,53.1588,247.1404,92.8196,256.8219,0,U,68240,999,589,.1867E-2,.104537E-2,0
STARLINK-37094,2026-054K,2026-06-03T14:32:12.081696,15.30191277,.00011727,53.1591,258.0057,62.5202,297.5918,0,U,68241,999,1214,.64058015E-3,.18656E-3,0
STARLINK-36356,2026-054L,2026-06-03T12:29:16.377216,15.30206179,.00011531,53.1566,258.1908,110.4789,249.6335,0,U,68242,999,1213,.61557145E-3,.1792E-3,0
STARLINK-36345,2026-054M,2026-06-03T14:09:35.899776,15.34400187,.00009851,53.1585,250.7024,69.2199,290.8909,0,U,68243,999,1224,.1039737E-2,.34917E-3,0
STARLINK-36310,2026-054N,2026-06-05T04:00:03.000096,15.49244162,.0001183,53.1582,246.9216,88.5527,5.3321,0,U,68244,999,585,.17815E-2,.99676E-3,0
STARLINK-36247,2026-054P,2026-06-04T21:00:35.183808,15.49391137,.0001394,53.1565,246.7000,47.7382,312.3745,0,U,68245,999,1241,.11629E-2,.64954E-3,0
STARLINK-37043,2026-054Q,2026-06-05T00:00:02.000160,15.49266793,.0001469,53.1586,247.8892,75.7114,85.2711,0,U,68246,999,587,.6574E-3,.36229E-3,0
STARLINK-37044,2026-054R,2026-06-04T14:30:44.125632,15.49366540,.00005026,53.1577,247.8562,64.4576,295.6485,0,U,68247,999,1237,.10187829E-2,.5674E-3,0
STARLINK-36997,2026-054S,2026-06-03T14:21:33.211584,15.30209537,.00010998,53.1600,257.9627,90.0520,270.0607,0,U,68248,999,1214,.8546995E-3,.25047E-3,0
STARLINK-37141,2026-054T,2026-06-04T14:40:13.606176,15.49372058,.00012411,53.1564,247.9192,110.7114,249.4029,0,U,68249,999,1237,.98596844E-3,.54896E-3,0
STARLINK-37087,2026-054U,2026-06-05T04:00:03.000096,15.35366575,.0000444,53.1589,247.4349,104.4149,95.9211,0,U,68250,999,589,.24441E-2,.85756E-3,0
STARLINK-36274,2026-054V,2026-06-03T12:33:49.601664,15.30186720,.00010726,53.1560,258.1963,36.0150,324.0923,0,U,68251,999,1213,.80301371E-3,.23489E-3,0
STARLINK-37085,2026-054W,2026-06-04T15:28:08.637024,15.49320523,.00025931,53.1575,247.3854,9.3458,350.7599,0,U,68252,999,1238,.99602617E-3,.55366E-3,0
STARLINK-37086,2026-054X,2026-06-03T12:52:17.792256,15.49336557,.00007944,53.1572,253.2818,96.6252,263.4848,0,U,68253,999,1220,.89625118E-3,.49764E-3,0
STARLINK-37084,2026-054Y,2026-06-04T18:47:46.612032,15.49339495,.0001701,53.1575,246.8360,39.9037,320.2096,0,U,68254,999,1240,.13206E-2,.73777E-3,0
